{
  "type": "FeatureCollection",
  "features": [
    {
      "type": "Feature",
      "properties": {
        "norad_id": 33835,
        "name": "COSMOS 2251 DEB",
        "group": "cosmos-2251-debris",
        "lat": -72.14305719758747,
        "lon": -7.754328983166018,
        "alt_km": 697.8708464007468,
        "timestamp": "2025-12-08T05:48:09.426415+00:00",
        "meta_object_name": "COSMOS 2251 DEB",
        "meta_object_id": "1993-036CC",
        "meta_epoch": "2025-12-07T15:35:03.922944",
        "meta_mean_motion": 14.62162375,
        "meta_eccentricity": 0.00552099,
        "meta_inclination": 74.0576,
        "meta_ra_of_asc_node": 110.8449,
        "meta_arg_of_pericenter": 165.8116,
        "meta_mean_anomaly": 218.2895,
        "meta_ephemeris_type": 0,
        "meta_classification_type": "U",
        "meta_norad_cat_id": 33835,
        "meta_element_set_no": 999,
        "meta_rev_at_epoch": 88715,
        "meta_bstar": 0.0019235469,
        "meta_mean_motion_dot": 9.877e-05,
        "meta_mean_motion_ddot": 0,
        "tle_line1": "1 33835U 93036CC  25341.64935096  .00009877  00000+0  19235-2 0  9992",
        "tle_line2": "2 33835  74.0576 110.8449 0055209 165.8116 218.2895 14.62162375887150"
      },
      "geometry": {
        "type": "Point",
        "coordinates": [
          -7.754328983166018,
          -72.14305719758747
        ]
      }
    },
    {
      "type": "Feature",
      "properties": {
        "norad_id": 33836,
        "name": "COSMOS 2251 DEB",
        "group": "cosmos-2251-debris",
        "lat": 3.890652887828005,
        "lon": -91.0565874570612,
        "alt_km": 640.5811579095907,
        "timestamp": "2025-12-08T05:48:09.426425+00:00",
        "meta_object_name": "COSMOS 2251 DEB",
        "meta_object_id": "1993-036CD",
        "meta_epoch": "2025-12-07T21:58:38.112096",
        "meta_mean_motion": 14.79474852,
        "meta_eccentricity": 0.00224743,
        "meta_inclination": 73.9976,
        "meta_ra_of_asc_node": 268.468,
        "meta_arg_of_pericenter": 123.3748,
        "meta_mean_anomaly": 305.1212,
        "meta_ephemeris_type": 0,
        "meta_classification_type": "U",
        "meta_norad_cat_id": 33836,
        "meta_element_set_no": 999,
        "meta_rev_at_epoch": 64017,
        "meta_bstar": 0.0017158091,
        "meta_mean_motion_dot": 0.00012866,
        "meta_mean_motion_ddot": 0,
        "tle_line1": "1 33836U 93036CD  25341.91571889  .00012866  00000+0  17158-2 0  9993",
        "tle_line2": "2 33836  73.9976 268.4680 0022474 123.3748 305.1212 14.79474852640170"
      },
      "geometry": {
        "type": "Point",
        "coordinates": [
          -91.0565874570612,
          3.890652887828005
        ]
      }
    },
    {
      "type": "Feature",
      "properties": {
        "norad_id": 33837,
        "name": "COSMOS 2251 DEB",
        "group": "cosmos-2251-debris",
        "lat": 74.00051922936872,
        "lon": 155.1346281924364,
        "alt_km": 740.3778547228776,
        "timestamp": "2025-12-08T05:48:09.426435+00:00",
        "meta_object_name": "COSMOS 2251 DEB",
        "meta_object_id": "1993-036CE",
        "meta_epoch": "2025-12-07T16:08:46.538304",
        "meta_mean_motion": 14.50684832,
        "meta_eccentricity": 0.00357798,
        "meta_inclination": 74.0131,
        "meta_ra_of_asc_node": 65.1372,
        "meta_arg_of_pericenter": 287.6958,
        "meta_mean_anomaly": 72.0298,
        "meta_ephemeris_type": 0,
        "meta_classification_type": "U",
        "meta_norad_cat_id": 33837,
        "meta_element_set_no": 999,
        "meta_rev_at_epoch": 88722,
        "meta_bstar": 0.00050614555,
        "meta_mean_motion_dot": 1.977e-05,
        "meta_mean_motion_ddot": 0,
        "tle_line1": "1 33837U 93036CE  25341.67276086  .00001977  00000+0  50615-3 0  9995",
        "tle_line2": "2 33837  74.0131  65.1372 0035779 287.6958  72.0298 14.50684832887228"
      },
      "geometry": {
        "type": "Point",
        "coordinates": [
          155.1346281924364,
          74.00051922936872
        ]
      }
    },
    {
      "type": "Feature",
      "properties": {
        "norad_id": 33838,
        "name": "COSMOS 2251 DEB",
        "group": "cosmos-2251-debris",
        "lat": 0.7441072071936317,
        "lon": 158.4500194050346,
        "alt_km": 730.2189664456064,
        "timestamp": "2025-12-08T05:48:09.426445+00:00",
        "meta_object_name": "COSMOS 2251 DEB",
        "meta_object_id": "1993-036CF",
        "meta_epoch": "2025-12-07T22:12:19.573056",
        "meta_mean_motion": 14.48340202,
        "meta_eccentricity": 0.00274464,
        "meta_inclination": 74.036,
        "meta_ra_of_asc_node": 158.8296,
        "meta_arg_of_pericenter": 281.3787,
        "meta_mean_anomaly": 229.3764,
        "meta_ephemeris_type": 0,
        "meta_classification_type": "U",
        "meta_norad_cat_id": 33838,
        "meta_element_set_no": 999,
        "meta_rev_at_epoch": 88499,
        "meta_bstar": 0.00057441597,
        "meta_mean_motion_dot": 2.131e-05,
        "meta_mean_motion_ddot": 0,
        "tle_line1": "1 33838U 93036CF  25341.92522654  .00002131  00000+0  57442-3 0  9997",
        "tle_line2": "2 33838  74.0360 158.8296 0027446 281.3787 229.3764 14.48340202884994"
      },
      "geometry": {
        "type": "Point",
        "coordinates": [
          158.4500194050346,
          0.7441072071936317
        ]
      }
    },
    {
      "type": "Feature",
      "properties": {
        "norad_id": 33839,
        "name": "COSMOS 2251 DEB",
        "group": "cosmos-2251-debris",
        "lat": 26.847094158360626,
        "lon": -136.54765830381177,
        "alt_km": 647.1467192880291,
        "timestamp": "2025-12-08T05:48:09.426456+00:00",
        "meta_object_name": "COSMOS 2251 DEB",
        "meta_object_id": "1993-036CG",
        "meta_epoch": "2025-12-07T15:02:34.528128",
        "meta_mean_motion": 14.64399997,
        "meta_eccentricity": 0.00849554,
        "meta_inclination": 74.0392,
        "meta_ra_of_asc_node": 216.3042,
        "meta_arg_of_pericenter": 329.5835,
        "meta_mean_anomaly": 56.9141,
        "meta_ephemeris_type": 0,
        "meta_classification_type": "U",
        "meta_norad_cat_id": 33839,
        "meta_element_set_no": 999,
        "meta_rev_at_epoch": 89505,
        "meta_bstar": 0.00046688625,
        "meta_mean_motion_dot": 2.569e-05,
        "meta_mean_motion_ddot": 0,
        "tle_line1": "1 33839U 93036CG  25341.62678852  .00002569  00000+0  46689-3 0  9993",
        "tle_line2": "2 33839  74.0392 216.3042 0084955 329.5835  56.9141 14.64399997895051"
      },
      "geometry": {
        "type": "Point",
        "coordinates": [
          -136.54765830381177,
          26.847094158360626
        ]
      }
    },
    {
      "type": "Feature",
      "properties": {
        "norad_id": 33841,
        "name": "COSMOS 2251 DEB",
        "group": "cosmos-2251-debris",
        "lat": -7.320501124864867,
        "lon": 108.43075118520149,
        "alt_km": 783.6517900117979,
        "timestamp": "2025-12-08T05:48:09.426466+00:00",
        "meta_object_name": "COSMOS 2251 DEB",
        "meta_object_id": "1993-036CJ",
        "meta_epoch": "2025-12-07T22:33:49.919904",
        "meta_mean_motion": 14.37848622,
        "meta_eccentricity": 0.00203259,
        "meta_inclination": 74.0375,
        "meta_ra_of_asc_node": 286.8786,
        "meta_arg_of_pericenter": 8.374,
        "meta_mean_anomaly": 58.5196,
        "meta_ephemeris_type": 0,
        "meta_classification_type": "U",
        "meta_norad_cat_id": 33841,
        "meta_element_set_no": 999,
        "meta_rev_at_epoch": 88045,
        "meta_bstar": 0.00040733242,
        "meta_mean_motion_dot": 1.205e-05,
        "meta_mean_motion_ddot": 0,
        "tle_line1": "1 33841U 93036CJ  25341.94016111  .00001205  00000+0  40733-3 0  9995",
        "tle_line2": "2 33841  74.0375 286.8786 0020325   8.3740  58.5196 14.37848622880450"
      },
      "geometry": {
        "type": "Point",
        "coordinates": [
          108.43075118520149,
          -7.320501124864867
        ]
      }
    },
    {
      "type": "Feature",
      "properties": {
        "norad_id": 33842,
        "name": "COSMOS 2251 DEB",
        "group": "cosmos-2251-debris",
        "lat": 3.9794505975152803,
        "lon": -130.85809654816734,
        "alt_km": 722.0191726621069,
        "timestamp": "2025-12-08T05:48:09.426476+00:00",
        "meta_object_name": "COSMOS 2251 DEB",
        "meta_object_id": "1993-036CK",
        "meta_epoch": "2025-12-07T23:07:36.155424",
        "meta_mean_motion": 14.42682524,
        "meta_eccentricity": 0.00471696,
        "meta_inclination": 74.034,
        "meta_ra_of_asc_node": 228.5168,
        "meta_arg_of_pericenter": 336.7909,
        "meta_mean_anomaly": 23.1116,
        "meta_ephemeris_type": 0,
        "meta_classification_type": "U",
        "meta_norad_cat_id": 33842,
        "meta_element_set_no": 999,
        "meta_rev_at_epoch": 88268,
        "meta_bstar": 0.00047705953,
        "meta_mean_motion_dot": 1.581e-05,
        "meta_mean_motion_ddot": 0,
        "tle_line1": "1 33842U 93036CK  25341.96361291  .00001581  00000+0  47706-3 0  9994",
        "tle_line2": "2 33842  74.0340 228.5168 0047169 336.7909  23.1116 14.42682524882680"
      },
      "geometry": {
        "type": "Point",
        "coordinates": [
          -130.85809654816734,
          3.9794505975152803
        ]
      }
    }
  ]
}